NORAD_CAT_ID,OBJECT_NAME,OBJECT_TYPE,EPOCH,MEAN_MOTION,ECCENTRICITY,INCLINATION,RA_OF_ASC_NODE,ARG_OF_PERICENTER,MEAN_ANOMALY,BSTAR,MEAN_MOTION_DOT,MEAN_MOTION_DDOT,TLE_LINE0,TLE_LINE1,TLE_LINE2,SEMIMAJOR_AXIS,PERIOD,APOGEE,PERIGEE,DECAYED
52585.0,STARLINK-3906,PAYLOAD,2023-06-13 08:56:51,15.08820789,0.0001134,53.2168,289.724,93.2414,266.8708,-7.0633e-05,-1.411e-05,0.0,0 STARLINK-3906,1 52585U 22051BB  23164.37282187 -.00001411  00000-0 -70633-4 0  9991,2 52585  53.2168 289.7240 0001134  93.2414 266.8708 15.08820789 60647,6917.939,95.439,540.589,539.02,0.0
52585.0,STARLINK-3906,PAYLOAD,2023-06-13 12:07:38,15.08817502,0.000112,53.2175,289.1331,87.9202,272.1918,-7.1465e-05,-1.424e-05,0.0,0 STARLINK-3906,1 52585U 22051BB  23164.50530605 -.00001424  00000-0 -71465-4 0  9995,2 52585  53.2175 289.1331 0001120  87.9202 272.1918 15.08817502 60596,6917.949,95.439,540.589,539.039,0.0
52585.0,STARLINK-3906,PAYLOAD,2023-06-13 18:29:10,15.08823905,0.0001184,53.2179,287.9416,80.4976,279.615,-0.00010437,-1.948e-05,0.0,0 STARLINK-3906,1 52585U 22051BB  23164.77026557 -.00001948  00000-0 -10437-3 0  9992,2 52585  53.2179 287.9416 0001184  80.4976 279.6150 15.08823905 60635,6917.93,95.439,540.614,538.976,0.0
52585.0,STARLINK-3906,PAYLOAD,2023-06-14 07:12:15,15.08832173,0.000107,53.2177,285.5643,94.7149,265.3966,8.5171e-05,1.068e-05,0.0,0 STARLINK-3906,1 52585U 22051BB  23165.30017923  .00001068  00000-0  85171-4 0  9998,2 52585  53.2177 285.5643 0001070  94.7149 265.3966 15.08832173 60783,6917.904,95.438,540.51,539.029,0.0
52585.0,STARLINK-3906,PAYLOAD,2023-06-15 00:41:29,15.08848284,0.000106,53.2172,282.2941,95.4127,264.6986,0.00014714,2.055e-05,0.0,0 STARLINK-3906,1 52585U 22051BB  23166.02880865  .00002055  00000-0  14714-3 0  9992,2 52585  53.2172 282.2941 0001060  95.4127 264.6986 15.08848284 60892,6917.855,95.437,540.453,538.987,0.0
52585.0,STARLINK-3906,PAYLOAD,2023-06-15 13:24:34,15.08843581,0.000107,53.2164,279.9172,97.1268,262.9846,0.0003318,4.997e-05,0.0,0 STARLINK-3906,1 52585U 22051BB  23166.55873126  .00004997  00000-0  33180-3 0  9997,2 52585  53.2164 279.9172 0001070  97.1268 262.9846 15.08843581 60901,6917.869,95.437,540.475,538.994,0.0
52585.0,STARLINK-3906,PAYLOAD,2023-06-15 16:35:20,15.08854813,0.0001288,53.2165,279.3219,97.8741,262.2398,0.00049481,7.599e-05,0.0,0 STARLINK-3906,1 52585U 22051BB  23166.69121011  .00007599  00000-0  49481-3 0  9993,2 52585  53.2165 279.3219 0001288  97.8741 262.2398 15.08854813 60929,6917.835,95.437,540.591,538.809,0.0
52585.0,STARLINK-3906,PAYLOAD,2023-06-16 06:53:48,15.08856189,0.0001172,53.2166,276.6455,99.8383,260.2741,0.00018923,2.726e-05,0.0,0 STARLINK-3906,1 52585U 22051BB  23167.28736462  .00002726  00000-0  18923-3 0  9995,2 52585  53.2166 276.6455 0001172  99.8383 260.2741 15.08856189 61084,6917.831,95.437,540.507,538.885,0.0
52585.0,STARLINK-3906,PAYLOAD,2023-06-16 11:39:57,15.08861043,0.0001073,53.2165,275.7521,100.8961,259.2152,0.00019667,2.845e-05,0.0,0 STARLINK-3906,1 52585U 22051BB  23167.48607987  .00002845  00000-0  19667-3 0  9994,2 52585  53.2165 275.7521 0001073 100.8961 259.2152 15.08861043 61047,6917.816,95.436,540.423,538.939,0.0
52585.0,STARLINK-3906,PAYLOAD,2023-06-16 16:26:06,15.08872526,0.000113,53.2165,274.8593,96.8619,263.2501,0.00046693,7.158e-05,0.0,0 STARLINK-3906,1 52585U 22051BB  23167.68479405  .00007158  00000-0  46693-3 0  9999,2 52585  53.2165 274.8593 0001130  96.8619 263.2501 15.08872526 61078,6917.781,95.435,540.428,538.864,0.0
52585.0,STARLINK-3906,PAYLOAD,2023-06-17 00:23:02,15.08842298,0.0001506,53.2172,273.3716,84.4126,275.7038,-0.00019734,-3.427e-05,0.0,0 STARLINK-3906,1 52585U 22051BB  23168.01600206 -.00003427  00000-0 -19734-3 0  9995,2 52585  53.2172 273.3716 0001506  84.4126 275.7038 15.08842298 61199,6917.873,95.437,540.78,538.697,0.0
52585.0,STARLINK-3906,PAYLOAD,2023-06-17 13:06:08,15.08838932,0.0001949,53.2163,270.9953,79.8167,280.3045,7.3521e-05,8.82e-06,0.0,0 STARLINK-3906,1 52585U 22051BB  23168.54592661  .00000882  00000-0  73521-4 0  9993,2 52585  53.2163 270.9953 0001949  79.8167 280.3045 15.08838932 61201,6917.884,95.438,541.097,538.4,0.0
52585.0,STARLINK-3906,PAYLOAD,2023-06-17 16:16:54,15.08826719,0.0001134,53.2162,270.3982,94.1959,265.9163,-0.00015987,-2.83e-05,0.0,0 STARLINK-3906,1 52585U 22051BB  23168.67840944 -.00002830  00000-0 -15987-3 0  9995,2 52585  53.2162 270.3982 0001134  94.1959 265.9163 15.08826719 61290,6917.921,95.438,540.57,539.001,0.0
52585.0,STARLINK-3906,PAYLOAD,2023-06-18 06:35:22,15.08840834,9.99e-05,53.216,267.7225,79.9937,280.1168,0.00031532,4.734e-05,0.0,0 STARLINK-3906,1 52585U 22051BB  23169.27457043  .00004734  00000-0  31532-3 0  9993,2 52585  53.2160 267.7225 0000999  79.9937 280.1168 15.08840834 61381,6917.878,95.438,540.434,539.052,0.0
52585.0,STARLINK-3906,PAYLOAD,2023-06-18 12:56:55,15.08849583,0.0001028,53.2159,266.5333,74.9686,285.142,0.0008872,0.00013864,0.0,0 STARLINK-3906,1 52585U 22051BB  23169.53953118  .00013864  00000-0  88720-3 0  9991,2 52585  53.2159 266.5333 0001028  74.9686 285.1420 15.08849583 61359,6917.851,95.437,540.427,539.005,0.0
52585.0,STARLINK-3906,PAYLOAD,2023-06-18 16:07:41,15.08855503,0.0001028,53.2158,265.9388,70.5531,289.5572,0.0010661,0.00016727,0.0,0 STARLINK-3906,1 52585U 22051BB  23169.67201049  .00016727  00000-0  10661-2 0  9994,2 52585  53.2158 265.9388 0001028  70.5531 289.5572 15.08855503 61379,6917.833,95.437,540.409,538.987,0.0
52585.0,STARLINK-3906,PAYLOAD,2023-06-19 12:47:42,15.08857681,0.00014,53.2156,262.0729,82.3367,277.7784,0.00066229,0.00010273,0.0,0 STARLINK-3906,1 52585U 22051BB  23170.53312809  .00010273  00000-0  66229-3 0  9990,2 52585  53.2156 262.0729 0001400  82.3367 277.7784 15.08857681 61571,6917.826,95.436,540.66,538.723,0.0
52585.0,STARLINK-3906,PAYLOAD,2023-06-19 14:23:05,15.08850925,0.0001119,53.2163,261.7751,76.6008,283.5109,0.00040446,6.157e-05,0.0,0 STARLINK-3906,1 52585U 22051BB  23170.59936830  .00006157  00000-0  40446-3 0  9991,2 52585  53.2163 261.7751 0001119  76.6008 283.5109 15.08850925 61519,6917.847,95.437,540.486,538.938,0.0
52585.0,STARLINK-3906,PAYLOAD,2023-06-20 06:16:56,15.08844216,8.96e-05,53.2161,258.8022,77.6265,282.4827,0.00045097,6.897e-05,0.0,0 STARLINK-3906,1 52585U 22051BB  23171.26177064  .00006897  00000-0  45097-3 0  9990,2 52585  53.2161 258.8022 0000896  77.6265 282.4827 15.08844216 61681,6917.868,95.437,540.352,539.113,0.0
52585.0,STARLINK-3906,PAYLOAD,2023-06-20 12:38:29,15.08839944,0.0001261,53.2167,257.6111,82.344,277.7696,0.00039373,5.984e-05,0.0,0 STARLINK-3906,1 52585U 22051BB  23171.52673141  .00005984  00000-0  39373-3 0  9992,2 52585  53.2167 257.6111 0001261  82.3440 277.7696 15.08839944 61658,6917.881,95.438,540.618,538.873,0.0
52585.0,STARLINK-3906,PAYLOAD,2023-06-20 14:13:52,15.08840549,0.0001109,53.2167,257.3139,80.1767,279.9351,0.00017184,2.448e-05,0.0,0 STARLINK-3906,1 52585U 22051BB  23171.59297131  .00002448  00000-0  17184-3 0  9998,2 52585  53.2167 257.3139 0001109  80.1767 279.9351 15.08840549 61738,6917.879,95.438,540.511,538.977,0.0
52585.0,STARLINK-3906,PAYLOAD,2023-06-21 12:29:16,15.08844783,0.0001028,53.2153,253.1538,85.84,274.271,0.00014222,1.977e-05,0.0,0 STARLINK-3906,1 52585U 22051BB  23172.52033006  .00001977  00000-0  14222-3 0  9997,2 52585  53.2153 253.1538 0001028  85.8400 274.2710 15.08844783 61805,6917.866,95.437,540.442,539.02,0.0
52585.0,STARLINK-3906,PAYLOAD,2023-06-21 22:01:35,15.08839358,0.0001046,53.2152,251.3704,86.6315,273.4797,5.9034e-05,6.52e-06,0.0,0 STARLINK-3906,1 52585U 22051BB  23172.91777172  .00000652  00000-0  59034-4 0  9999,2 52585  53.2152 251.3704 0001046  86.6315 273.4797 15.08839358 61935,6917.882,95.438,540.471,539.024,0.0
52585.0,STARLINK-3906,PAYLOAD,2023-06-23 10:35:27,15.08838913,9.44e-05,53.2149,244.5292,83.541,276.5689,3.9407e-05,3.39e-06,0.0,0 STARLINK-3906,1 52585U 22051BB  23174.44129441  .00000339  00000-0  39407-4 0  9993,2 52585  53.2149 244.5292 0000944  83.5410 276.5689 15.08838913 62161,6917.884,95.438,540.402,539.096,0.0
52585.0,STARLINK-3906,PAYLOAD,2023-06-24 12:01:37,15.08855054,9.98e-05,53.2148,239.7713,79.2513,280.8591,0.00047362,7.261e-05,0.0,0 STARLINK-3906,1 52585U 22051BB  23175.50112942  .00007261  00000-0  47362-3 0  9998,2 52585  53.2148 239.7713 0000998  79.2513 280.8591 15.08855054 62322,6917.834,95.437,540.39,539.009,0.0
52585.0,STARLINK-3906,PAYLOAD,2023-06-25 03:55:29,15.08843913,0.0001264,53.2154,236.8009,75.6168,284.4964,0.00014275,1.985e-05,0.0,0 STARLINK-3906,1 52585U 22051BB  23176.16353212  .00001985  00000-0  14275-3 0  9992,2 52585  53.2154 236.8009 0001264  75.6168 284.4964 15.08843913 62424,6917.868,95.437,540.608,538.859,0.0
52585.0,STARLINK-3906,PAYLOAD,2023-06-25 21:24:43,15.08836578,9.95e-05,53.214,233.5254,88.6022,271.5084,1.122e-06,-2.7e-06,0.0,0 STARLINK-3906,1 52585U 22051BB  23176.89217517 -.00000270  00000-0  11220-5 0  9995,2 52585  53.2140 233.5254 0000995  88.6022 271.5084 15.08836578 62539,6917.891,95.438,540.444,539.068,0.0
52585.0,STARLINK-3906,PAYLOAD,2023-06-27 09:58:35,15.08844111,0.0001008,53.2155,226.6863,82.7242,277.3864,0.00011458,1.536e-05,0.0,0 STARLINK-3906,1 52585U 22051BB  23178.41569236  .00001536  00000-0  11458-3 0  9999,2 52585  53.2155 226.6863 0001008  82.7242 277.3864 15.08844111 62766,6917.868,95.437,540.43,539.036,0.0
52585.0,STARLINK-3906,PAYLOAD,2023-06-28 01:52:28,15.08830088,0.0001105,53.216,223.7138,78.3407,281.7709,6.5291e-05,7.51e-06,0.0,0 STARLINK-3906,1 52585U 22051BB  23179.07810484  .00000751  00000-0  65291-4 0  9999,2 52585  53.2160 223.7138 0001105  78.3407 281.7709 15.08830088 62863,6917.911,95.438,540.54,539.011,0.0
52585.0,STARLINK-3906,PAYLOAD,2023-06-29 03:18:38,15.08836399,9.79e-05,53.2153,218.9539,84.327,275.7834,1.5217e-05,-4.6e-07,0.0,0 STARLINK-3906,1 52585U 22051BB  23180.13794733 -.00000046  00000-0  15217-4 0  9997,2 52585  53.2153 218.9539 0000979  84.3270 275.7834 15.08836399 63021,6917.891,95.438,540.434,539.079,0.0
